[{"OBJECT_NAME":"STARLINK-4454","OBJECT_ID":"2022-099AL","EPOCH":"2026-03-09T21:07:03.605376","MEAN_MOTION":15.05646203,"ECCENTRICITY":7.42e-5,"INCLINATION":97.604,"RA_OF_ASC_NODE":191.4609,"ARG_OF_PERICENTER":230.7408,"MEAN_ANOMALY":129.3753,"EPHEMERIS_TYPE":0,"CLASSIFICATION_TYPE":"U","NORAD_CAT_ID":53499,"ELEMENT_SET_NO":999,"REV_AT_EPOCH":19608,"BSTAR":3.8063679e-5,"MEAN_MOTION_DOT":4.88e-6,"MEAN_MOTION_DDOT":0},{"OBJECT_NAME":"OPS 0252","OBJECT_ID":"1983-008A","EPOCH":"2026-03-09T17:05:48.785280","MEAN_MOTION":13.86595094,"ECCENTRICITY":0.06891162,"INCLINATION":63.3075,"RA_OF_ASC_NODE":208.1784,"ARG_OF_PERICENTER":134.6802,"MEAN_ANOMALY":231.2568,"EPHEMERIS_TYPE":0,"CLASSIFICATION_TYPE":"U","NORAD_CAT_ID":13791,"ELEMENT_SET_NO":999,"REV_AT_EPOCH":9249,"BSTAR":0.00087750094,"MEAN_MOTION_DOT":7.26e-5,"MEAN_MOTION_DDOT":0}]
